[
    {
        "Altitude(m)": 559726.7038776879,
        "Argument of Periapsis(deg)": 0.0,
        "Eccentricity": 0.0,
        "Inclination(deg)": 53.0,
        "Latitude(deg)": 52.38331016938308,
        "Longitude(deg)": 133.48249075703004,
        "Mean Anomaly(deg)": 98.18179999999998,
        "RAAN(deg)": 130.0,
        "Satellite Name": "Starlink Shell 1 578",
        "Satellite Number": 578,
        "Semi-Major Axis(m)": 6931778.249405717,
        "Time(s)": 0
    },
    {
        "Altitude(m)": 559699.2632901956,
        "Argument of Periapsis(deg)": 0.00034857847951123687,
        "Eccentricity": 0.0,
        "Inclination(deg)": 53.0,
        "Latitude(deg)": 52.26254934844517,
        "Longitude(deg)": 134.44482002560207,
        "Mean Anomaly(deg)": 98.80863120355671,
        "RAAN(deg)": 129.99948122992254,
        "Satellite Name": "Starlink Shell 1 578",
        "Satellite Number": 578,
        "Semi-Major Axis(m)": 6931778.249405717,
        "Time(s)": 10
    },
    {
        "Altitude(m)": 559669.8749611783,
        "Argument of Periapsis(deg)": 0.0006971569590224737,
        "Eccentricity": 0.0,
        "Inclination(deg)": 53.0,
        "Latitude(deg)": 52.13330657291534,
        "Longitude(deg)": 135.40152558648984,
        "Mean Anomaly(deg)": 99.4354624071134,
        "RAAN(deg)": 129.99896245984505,
        "Satellite Name": "Starlink Shell 1 578",
        "Satellite Number": 578,
        "Semi-Major Axis(m)": 6931778.249405717,
        "Time(s)": 20
    },
    {
        "Altitude(m)": 559638.556623084,
        "Argument of Periapsis(deg)": 0.0010457354385337105,
        "Eccentricity": 0.0,
        "Inclination(deg)": 53.0,
        "Latitude(deg)": 51.99566931920465,
        "Longitude(deg)": 136.35229016972934,
        "Mean Anomaly(deg)": 100.06229361067012,
        "RAAN(deg)": 129.99844368976758,
        "Satellite Name": "Starlink Shell 1 578",
        "Satellite Number": 578,
        "Semi-Major Axis(m)": 6931778.249405717,
        "Time(s)": 30
    },
    {
        "Altitude(m)": 559605.3271814073,
        "Argument of Periapsis(deg)": 0.0013943139180449475,
        "Eccentricity": 0.0,
        "Inclination(deg)": 53.0,
        "Latitude(deg)": 51.849729452528045,
        "Longitude(deg)": 137.29681220017264,
        "Mean Anomaly(deg)": 100.68912481422686,
        "RAAN(deg)": 129.99792491969012,
        "Satellite Name": "Starlink Shell 1 578",
        "Satellite Number": 578,
        "Semi-Major Axis(m)": 6931778.249405717,
        "Time(s)": 40
    },
    {
        "Altitude(m)": 559570.2067054295,
        "Argument of Periapsis(deg)": 0.0017428923975561844,
        "Eccentricity": 0.0,
        "Inclination(deg)": 53.0,
        "Latitude(deg)": 51.69558294923182,
        "Longitude(deg)": 138.23480520680326,
        "Mean Anomaly(deg)": 101.31595601778355,
        "RAAN(deg)": 129.99740614961263,
        "Satellite Name": "Starlink Shell 1 578",
        "Satellite Number": 578,
        "Semi-Major Axis(m)": 6931778.249405717,
        "Time(s)": 50
    },
    {
        "Altitude(m)": 559533.2164184401,
        "Argument of Periapsis(deg)": 0.002091470877067421,
        "Eccentricity": 0.0,
        "Inclination(deg)": 53.0,
        "Latitude(deg)": 51.533329614316294,
        "Longitude(deg)": 139.16599865854263,
        "Mean Anomaly(deg)": 101.94278722134031,
        "RAAN(deg)": 129.99688737953517,
        "Satellite Name": "Starlink Shell 1 578",
        "Satellite Number": 578,
        "Semi-Major Axis(m)": 6931778.249405717,
        "Time(s)": 60
    },
    {
        "Altitude(m)": 559494.3786873387,
        "Argument of Periapsis(deg)": 0.0024400493565786582,
        "Eccentricity": 0.0,
        "Inclination(deg)": 53.0,
        "Latitude(deg)": 51.36307279590362,
        "Longitude(deg)": 140.0901387152263,
        "Mean Anomaly(deg)": 102.56961842489699,
        "RAAN(deg)": 129.9963686094577,
        "Satellite Name": "Starlink Shell 1 578",
        "Satellite Number": 578,
        "Semi-Major Axis(m)": 6931778.249405717,
        "Time(s)": 70
    },
    {
        "Altitude(m)": 559453.7170117057,
        "Argument of Periapsis(deg)": 0.002788627836089895,
        "Eccentricity": 0.0,
        "Inclination(deg)": 53.0,
        "Latitude(deg)": 51.18491909832793,
        "Longitude(deg)": 141.0069873832322,
        "Mean Anomaly(deg)": 103.19644962845373,
        "RAAN(deg)": 129.9958498393802,
        "Satellite Name": "Starlink Shell 1 578",
        "Satellite Number": 578,
        "Semi-Major Axis(m)": 6931778.249405717,
        "Time(s)": 80
    },
    {
        "Altitude(m)": 559411.2560122939,
        "Argument of Periapsis(deg)": 0.0031372063156011316,
        "Eccentricity": 0.0,
        "Inclination(deg)": 53.0,
        "Latitude(deg)": 50.9989780954438,
        "Longitude(deg)": 141.91632310450302,
        "Mean Anomaly(deg)": 103.82328083201041,
        "RAAN(deg)": 129.99533106930275,
        "Satellite Name": "Starlink Shell 1 578",
        "Satellite Number": 578,
        "Semi-Major Axis(m)": 6931778.249405717,
        "Time(s)": 90
    },
    {
        "Altitude(m)": 559367.0214189725,
        "Argument of Periapsis(deg)": 0.0034857847951123688,
        "Eccentricity": 0.0,
        "Inclination(deg)": 53.0,
        "Latitude(deg)": 50.80536204566403,
        "Longitude(deg)": 142.8179412696417,
        "Mean Anomaly(deg)": 104.45011203556713,
        "RAAN(deg)": 129.9948122992253,
        "Satellite Name": "Starlink Shell 1 578",
        "Satellite Number": 578,
        "Semi-Major Axis(m)": 6931778.249405717,
        "Time(s)": 100
    },
    {
        "Altitude(m)": 559321.0400581213,
        "Argument of Periapsis(deg)": 0.003834363274623606,
        "Eccentricity": 0.0,
        "Inclination(deg)": 53.0,
        "Latitude(deg)": 50.604185610140604,
        "Longitude(deg)": 143.71165314623127,
        "Mean Anomaly(deg)": 105.07694323912388,
        "RAAN(deg)": 129.9942935291478,
        "Satellite Name": "Starlink Shell 1 578",
        "Satellite Number": 578,
        "Semi-Major Axis(m)": 6931778.249405717,
        "Time(s)": 110
    },
    {
        "Altitude(m)": 559273.3398394898,
        "Argument of Periapsis(deg)": 0.004182941754134842,
        "Eccentricity": 0.0,
        "Inclination(deg)": 53.0,
        "Latitude(deg)": 50.395565575387906,
        "Longitude(deg)": 144.5972862525596,
        "Mean Anomaly(deg)": 105.70377444268054,
        "RAAN(deg)": 129.99377475907033,
        "Satellite Name": "Starlink Shell 1 578",
        "Satellite Number": 578,
        "Semi-Major Axis(m)": 6931778.249405717,
        "Time(s)": 120
    },
    {
        "Altitude(m)": 559223.9497424979,
        "Argument of Periapsis(deg)": 0.004531520233646079,
        "Eccentricity": 0.0,
        "Inclination(deg)": 53.0,
        "Latitude(deg)": 50.17962058154167,
        "Longitude(deg)": 145.47468466860923,
        "Mean Anomaly(deg)": 106.3306056462373,
        "RAAN(deg)": 129.99325598899287,
        "Satellite Name": "Starlink Shell 1 578",
        "Satellite Number": 578,
        "Semi-Major Axis(m)": 6931778.249405717,
        "Time(s)": 130
    },
    {
        "Altitude(m)": 559172.8998020189,
        "Argument of Periapsis(deg)": 0.0048800987131573164,
        "Eccentricity": 0.0,
        "Inclination(deg)": 53.0,
        "Latitude(deg)": 49.956470857328966,
        "Longitude(deg)": 146.34370777640916,
        "Mean Anomaly(deg)": 106.95743684979395,
        "RAAN(deg)": 129.99273721891538,
        "Satellite Name": "Starlink Shell 1 578",
        "Satellite Number": 578,
        "Semi-Major Axis(m)": 6931778.249405717,
        "Time(s)": 140
    },
    {
        "Altitude(m)": 559120.2210936242,
        "Argument of Periapsis(deg)": 0.005228677192668553,
        "Eccentricity": 0.0,
        "Inclination(deg)": 53.0,
        "Latitude(deg)": 49.72623796269963,
        "Longitude(deg)": 147.2042304606319,
        "Mean Anomaly(deg)": 107.58426805335073,
        "RAAN(deg)": 129.99221844883792,
        "Satellite Name": "Starlink Shell 1 578",
        "Satellite Number": 578,
        "Semi-Major Axis(m)": 6931778.249405717,
        "Time(s)": 150
    },
    {
        "Altitude(m)": 559065.9457183256,
        "Argument of Periapsis(deg)": 0.00557725567217979,
        "Eccentricity": 0.0,
        "Inclination(deg)": 53.0,
        "Latitude(deg)": 49.48904453995614,
        "Longitude(deg)": 148.0561432617695,
        "Mean Anomaly(deg)": 108.21109925690746,
        "RAAN(deg)": 129.99169967876045,
        "Satellite Name": "Starlink Shell 1 578",
        "Satellite Number": 578,
        "Semi-Major Axis(m)": 6931778.249405717,
        "Time(s)": 160
    },
    {
        "Altitude(m)": 559010.1067867791,
        "Argument of Periapsis(deg)": 0.0059258341516910265,
        "Eccentricity": 0.0,
        "Inclination(deg)": 53.0,
        "Latitude(deg)": 49.2450140741001,
        "Longitude(deg)": 148.89935097425268,
        "Mean Anomaly(deg)": 108.83793046046414,
        "RAAN(deg)": 129.99118090868296,
        "Satellite Name": "Starlink Shell 1 578",
        "Satellite Number": 578,
        "Semi-Major Axis(m)": 6931778.249405717,
        "Time(s)": 170
    },
    {
        "Altitude(m)": 558952.7384029909,
        "Argument of Periapsis(deg)": 0.006274412631202263,
        "Eccentricity": 0.0,
        "Inclination(deg)": 53.0,
        "Latitude(deg)": 48.994270662992044,
        "Longitude(deg)": 149.7337727204487,
        "Mean Anomaly(deg)": 109.46476166402087,
        "RAAN(deg)": 129.9906621386055,
        "Satellite Name": "Starlink Shell 1 578",
        "Satellite Number": 578,
        "Semi-Major Axis(m)": 6931778.249405717,
        "Time(s)": 180
    }
]